SARSAT 7 (NOAA 15)      
1 25338U 98030A   24213.56230705  .00000392  00000+0  17997-3 0  9990
2 25338  98.5671 239.7597 0010135 188.3598 171.7415 14.26643358363766
GPS BIIR-08             
1 27663U 03005A   24211.79952376  .00000070  00000+0  00000+0 0  9995
2 27663  55.0897 242.2991 0136526  47.4588 120.8149  2.00572330157525
GPS BIIR-11             
1 28190U 04009A   24213.43031069 -.00000069  00000+0  00000+0 0  9995
2 28190  55.4150 303.2734 0098663 150.5718 272.1177  2.00558008149192
GPS BIIR-13             
1 28474U 04045A   24213.52752729 -.00000111  00000+0  00000+0 0  9991
2 28474  55.4197 352.4367 0162202 293.4982 245.1403  2.00561610144670
SARSAT 10 (NOAA 18)     
1 28654U 05018A   24213.52782506  .00000346  00000+0  20842-3 0  9997
2 28654  98.8732 290.1233 0013178 299.3815  60.6041 14.13266885989435
GPS BIIR-14M            
1 28874U 05038A   24213.37137631 -.00000063  00000+0  00000+0 0  9996
2 28874  55.4607 300.7386 0136844 284.4212 118.9881  2.00552381138086
METEOSAT-9 (MSG-2)      
1 28912U 05049B   24213.24314479  .00000113  00000+0  00000+0 0  9999
2 28912   7.7853  60.4941 0000472 349.9585  32.0669  1.00272716   130
GOES 13                 
1 29155U 06018A   24212.59888322  .00000048  00000+0  00000+0 0  9993
2 29155   2.7367  84.7930 0075850 255.8120 228.1112  0.99029958 36465
GPS BIIR-16M            
1 29601U 06052A   24213.37270580  .00000073  00000+0  00000+0 0  9993
2 29601  55.1205 241.2171 0084321  83.4763 277.5498  2.00570184129657
GPS BIIR-17M            
1 32260U 07047A   24213.17707164 -.00000062  00000+0  00000+0 0  9993
2 32260  53.6281 108.4272 0157115  76.2740 285.5024  2.00561735123056
GPS BIIR-18M            
1 32384U 07062A   24213.47600211 -.00000064  00000+0  00000+0 0  9997
2 32384  55.6010 301.6031 0029098 155.0379 190.9879  2.00577151121758
SARSAT 12 (NOAA 19)     
1 33591U 09005A   24213.55639203  .00000339  00000+0  20596-3 0  9999
2 33591  99.0445 269.8196 0014219 163.3845 196.7795 14.13061104797639
GOES 14                 
1 35491U 09033A   24213.55295392 -.00000075  00000+0  00000+0 0  9990
2 35491   0.4405  99.9879 0003475  25.4651 274.7896  1.00272105 55281
GOES 15                 
1 36411U 10008A   24213.18105214  .00000031  00000+0  00000+0 0  9990
2 36411   0.4986 274.5369 0005277 286.0422 235.2053  1.00277635 52766
GSAT0101 (GALILEO-PFM)  
1 37846U 11060A   24211.95732968 -.00000099  00000+0  00000+0 0  9992
2 37846  57.1298   0.3779 0002371  66.7048 293.3181  1.70475789 79407
GSAT0102 (GALILEO-FM2)  
1 37847U 11060B   24212.46461786 -.00000101  00000+0  00000+0 0  9991
2 37847  57.1303   0.3643 0001810   9.9905 346.9697  1.70475269 79414
LUCH 5A                 
1 37951U 11074B   24212.57787219 -.00000061  00000+0  00000+0 0  9991
2 37951   6.9941  84.2917 0004122  51.1659 188.1446  1.00271024 46305
METEOSAT-10 (MSG-3)     
1 38552U 12035B   24213.59193166 -.00000015  00000+0  00000+0 0  9991
2 38552   3.0634  61.2809 0000465 204.4721 257.1153  1.00274822 43986
SARSAT 13 (METOP-B)     
1 38771U 12049A   24213.58938002  .00000245  00000+0  13182-3 0  9997
2 38771  98.6253 269.8088 0001016  83.3497 276.7796 14.21459113615865
GPS BIIF-3              
1 38833U 12053A   24213.27454273  .00000012  00000+0  00000+0 0  9993
2 38833  53.5196 171.6683 0154160  56.4062 305.0196  2.00559277 85686
GSAT0103 (GALILEO-FM3)  
1 38857U 12055A   24210.23691864 -.00000026  00000+0  00000+0 0  9999
2 38857  55.4225 120.4775 0003938 282.7069  77.2659  1.70473537 73260
GPS BIIF-4              
1 39166U 13023A   24212.63861692 -.00000058  00000+0  00000+0 0  9998
2 39166  55.0739 296.8310 0123711  45.0411 316.0026  2.00562590 82114
INSAT-3D                
1 39216U 13038B   24213.56368674 -.00000355  00000+0  00000+0 0  9995
2 39216   0.1464  94.9968 0001453 105.6726  72.2305  1.00558022 40201
GPS BIIF-5              
1 39533U 14008A   24213.13598533  .00000026  00000+0  00000+0 0  9991
2 39533  53.6022 177.2776 0073421 221.2191 138.1953  2.00570962 75929
LUCH 5V                 
1 39727U 14023A   24213.60605087 -.00000278  00000+0  00000+0 0  9998
2 39727   3.4053  75.7443 0003019 109.4281  77.3285  1.00266570 37484
GPS BIIF-6              
1 39741U 14026A   24213.41451284 -.00000106  00000+0  00000+0 0  9994
2 39741  56.7082 358.1553 0030949 315.3573  44.3940  2.00565129 74786
GPS BIIF-7              
1 40105U 14045A   24213.00862484 -.00000059  00000+0  00000+0 0  9991
2 40105  54.9477 115.8574 0027183 114.7345 245.5706  2.00569342 72318
GSAT0201 (GALILEO 5)    
1 40128U 14050A   24212.74574698 -.00000085  00000+0  00000+0 0  9998
2 40128  49.6140 301.3132 1612545 152.9688 216.4669  1.85519435 65586
GSAT0202 (GALILEO 6)    
1 40129U 14050B   24213.54287392 -.00000080  00000+0  00000+0 0  9995
2 40129  49.6298 300.3585 1611615 153.7982 215.3742  1.85520053 67765
GPS BIIF-8              
1 40294U 14068A   24212.88290893 -.00000056  00000+0  00000+0 0  9996
2 40294  56.4584  57.5355 0054964  63.9611 296.6686  2.00562595 71440
GLONASS-K 2             
1 40315U 14075A   24212.77429642  .00000099  00000+0  00000+0 0  9998
2 40315  63.6228 214.1602 0021059 211.6114 148.2926  2.13101414 75226
GPS BIIF-9              
1 40534U 15013A   24212.51419457  .00000079  00000+0  00000+0 0  9997
2 40534  53.3313 232.6010 0088778  29.8512 330.7064  2.00562890 68059
GSAT0203 (GALILEO 7)    
1 40544U 15017A   24212.90966957 -.00000103  00000+0  00000+0 0  9996
2 40544  56.9240   0.2803 0002498 233.6409 126.3319  1.70476108 57504
GSAT0204 (GALILEO 8)    
1 40545U 15017B   24212.57738821 -.00000102  00000+0  00000+0 0  9996
2 40545  56.9309   0.3050 0002755 212.3342 147.6456  1.70475650 58164
GPS BIIF-10             
1 40730U 15033A   24212.67606125 -.00000054  00000+0  00000+0 0  9998
2 40730  54.5567 295.2812 0094336  19.7723 340.6413  2.00564712 66225
METEOSAT-11 (MSG-4)     
1 40732U 15034A   24213.59375913  .00000054  00000+0  00000+0 0  9990
2 40732   1.4896  69.9993 0001491 159.2377 303.5453  1.00276677   357
GSAT0205 (GALILEO 9)    
1 40889U 15045A   24212.93214263  .00000063  00000+0  00000+0 0  9992
2 40889  55.1996 240.5605 0002883   7.9072 352.1670  1.70473639 55312
GSAT0206 (GALILEO 10)   
1 40890U 15045B   24212.56621451  .00000063  00000+0  00000+0 0  9994
2 40890  55.1989 240.5659 0001641 323.6709  36.3869  1.70473595 55335
GPS BIIF-11             
1 41019U 15062A   24212.73592498 -.00000056  00000+0  00000+0 0  9997
2 41019  56.4381  57.3947 0096254 224.5907 134.6925  2.00562533 64066
ELEKTRO-L 2             
1 41105U 15074A   24213.37435767 -.00000128  00000+0  00000+0 0  9992
2 41105   4.9518  78.9419 0001807 152.3108 198.4943  1.00272370 31626
GSAT0209 (GALILEO 12)   
1 41174U 15079A   24210.38961383 -.00000027  00000+0  00000+0 0  9997
2 41174  55.4420 120.1829 0005228 310.5837  49.3875  1.70473697 53037
GSAT0208 (GALILEO 11)   
1 41175U 15079B   24212.95577448 -.00000045  00000+0  00000+0 0  9998
2 41175  55.4409 120.1101 0003901 325.9072  34.0784  1.70473825 53498
GPS BIIF-12             
1 41328U 16007A   24213.31503969 -.00000059  00000+0  00000+0 0  9993
2 41328  55.1416 116.6973 0079946 238.8073 120.4287  2.00559697 62084
GSAT0211 (GALILEO 14)   
1 41549U 16030A   24211.90532389  .00000063  00000+0  00000+0 0  9999
2 41549  55.3473 240.6001 0003269 308.7851  51.2530  1.70473598 50956
GSAT0210 (GALILEO 13)   
1 41550U 16030B   24184.62718941  .00000039  00000+0  00000+0 0  9992
2 41550  55.3572 241.3529 0003113 263.9843  96.0701  1.70473946 50484
INSAT-3DR               
1 41752U 16054A   24212.39022419 -.00000082  00000+0  00000+0 0  9995
2 41752   0.1154  92.3715 0010957 171.4188 259.1610  1.00271381 28930
GSAT0207 (GALILEO 15)   
1 41859U 16069A   24211.26985809 -.00000036  00000+0  00000+0 0  9994
2 41859  55.1067 120.1500 0004250 313.1263  46.8512  1.70473732 47890
GSAT0212 (GALILEO 16)   
1 41860U 16069B   24211.12410821 -.00000034  00000+0  00000+0 0  9996
2 41860  55.1043 120.1503 0003278 345.5184  14.4857  1.70473871 47920
GSAT0213 (GALILEO 17)   
1 41861U 16069C   24213.25240831 -.00000046  00000+0  00000+0 0  9998
2 41861  55.1077 120.0982 0003610 294.2631  65.7099  1.70474399 47827
GSAT0214 (GALILEO 18)   
1 41862U 16069D   24212.22443828 -.00000042  00000+0  00000+0 0  9992
2 41862  55.1057 120.1201 0002899 300.1987  59.7833  1.70473890 47936
GOES 16                 
1 41866U 16071A   24213.57696376 -.00000256  00000+0  00000+0 0  9993
2 41866   0.0858 260.3994 0000253 295.2204 246.5506  1.00271418 28221
GSAT-17                 
1 42815U 17040B   24213.60605087 -.00000266  00000+0  00000+0 0  9999
2 42815   0.0278  76.3408 0002605 176.2670   8.7910  1.00269391 25912
GSAT0215 (GALILEO 19)   
1 43055U 17079A   24210.95418365  .00000061  00000+0  00000+0 0  9996
2 43055  55.3252 240.4476 0003490 258.6451 101.3798  1.70474331 41256
GSAT0216 (GALILEO 20)   
1 43056U 17079B   24213.00560785  .00000063  00000+0  00000+0 0  9992
2 43056  55.3244 240.3909 0005049 270.7807  89.2311  1.70474412 41301
GSAT0217 (GALILEO 21)   
1 43057U 17079C   24211.46634133  .00000063  00000+0  00000+0 0  9990
2 43057  55.3227 240.4315 0004043 284.6466  75.3743  1.70474056 41267
GSAT0218 (GALILEO 22)   
1 43058U 17079D   24212.27298147  .00000064  00000+0  00000+0 0  9993
2 43058  55.3229 240.4073 0005306 266.6973  93.3101  1.70474367 41305
GOES 17                 
1 43226U 18022A   24213.55577075 -.00000098  00000+0  00000+0 0  9999
2 43226   0.0093 310.6737 0001441 232.5792 221.7590  1.00271840 23541
GSAT0221 (GALILEO 25)   
1 43564U 18060A   24212.76052464 -.00000102  00000+0  00000+0 0  9994
2 43564  57.3046   0.2957 0002233 269.2544  90.7161  1.70475963 37460
GSAT0222 (GALILEO 26)   
1 43565U 18060B   24212.97910935 -.00000103  00000+0  00000+0 0  9995
2 43565  57.3082   0.2918 0002714 214.7087 145.2692  1.70475762 37517
GSAT0219 (GALILEO 23)   
1 43566U 18060C   24212.02775478 -.00000099  00000+0  00000+0 0  9997
2 43566  57.3078   0.3193 0001329 281.4485  78.5341  1.70475981 37470
